{"type": "FeatureCollection", "features": [ {"type": "Feature", "properties": {"norad_id": 32225, "name": "FENGYUN 1C DEB", "group": "fengyun-1c-debris", "lat": 63.28751469425608, "lon": -123.80295453791994, "alt_km": 838.0032788167, "timestamp": "2025-12-14T22:38:41.043892+00:00", "meta": {"OBJECT_NAME": "FENGYUN 1C DEB", "OBJECT_ID": "1999-025CVX", "EPOCH": "2025-12-10T21:13:47.563392", "MEAN_MOTION": 14.13042634, "ECCENTRICITY": 0.0071641, "INCLINATION": 99.0927, "RA_OF_ASC_NODE": 33.5192, "ARG_OF_PERICENTER": 211.7536, "MEAN_ANOMALY": 147.9305, "EPHEMERIS_TYPE": 0, "CLASSIFICATION_TYPE": "U", "NORAD_CAT_ID": 32225, "ELEMENT_SET_NO": 999, "REV_AT_EPOCH": 68090, "BSTAR": 0.00031798, "MEAN_MOTION_DOT": 5.62e-06, "MEAN_MOTION_DDOT": 0}, "tle": {"line1": "1 32225U 99025CVX 25344.88457828  .00000562  00000+0  31798-3 0  9990", "line2": "2 32225  99.0927  33.5192 0071641 211.7536 147.9305 14.13042634680909"}}, "geometry": {"type": "Point", "coordinates": [-123.80295453791994, 63.28751469425608]}}, {"type": "Feature", "properties": {"norad_id": 32230, "name": "FENGYUN 1C DEB", "group": "fengyun-1c-debris", "lat": -67.24397772493514, "lon": 160.55447110576353, "alt_km": 744.0145785261093, "timestamp": "2025-12-14T22:38:41.043902+00:00", "meta": {"OBJECT_NAME": "FENGYUN 1C DEB", "OBJECT_ID": "1999-025CWC", "EPOCH": "2025-12-13T09:10:06.590208", "MEAN_MOTION": 14.56150163, "ECCENTRICITY": 0.005055, "INCLINATION": 98.8706, "RA_OF_ASC_NODE": 137.0363, "ARG_OF_PERICENTER": 87.2509, "MEAN_ANOMALY": 303.0071, "EPHEMERIS_TYPE": 0, "CLASSIFICATION_TYPE": "U", "NORAD_CAT_ID": 32230, "ELEMENT_SET_NO": 999, "REV_AT_EPOCH": 60679, "BSTAR": 0.0050290882, "MEAN_MOTION_DOT": 0.00022605, "MEAN_MOTION_DDOT": 0}, "tle": {"line1": "1 32230U 99025CWC 25347.38202072  .00022605  00000+0  50291-2 0  9993", "line2": "2 32230  98.8706 137.0363 0050550  87.2509 303.0071 14.56150163606793"}}, "geometry": {"type": "Point", "coordinates": [160.55447110576353, -67.24397772493514]}}, {"type": "Feature", "properties": {"norad_id": 32234, "name": "FENGYUN 1C DEB", "group": "fengyun-1c-debris", "lat": -70.13270298403826, "lon": -136.837117677238, "alt_km": 846.2606691168785, "timestamp": "2025-12-14T22:38:41.043912+00:00", "meta": {"OBJECT_NAME": "FENGYUN 1C DEB", "OBJECT_ID": "1999-025CWG", "EPOCH": "2025-12-12T00:21:39.640896", "MEAN_MOTION": 13.94120362, "ECCENTRICITY": 0.01375114, "INCLINATION": 98.5287, "RA_OF_ASC_NODE": 195.9219, "ARG_OF_PERICENTER": 338.147, "MEAN_ANOMALY": 21.3862, "EPHEMERIS_TYPE": 0, "CLASSIFICATION_TYPE": "U", "NORAD_CAT_ID": 32234, "ELEMENT_SET_NO": 999, "REV_AT_EPOCH": 93199, "BSTAR": 0.0020757912, "MEAN_MOTION_DOT": 2.936e-05, "MEAN_MOTION_DDOT": 0}, "tle": {"line1": "1 32234U 99025CWG 25346.01504214  .00002936  00000+0  20758-2 0  9999", "line2": "2 32234  98.5287 195.9219 0137511 338.1470  21.3862 13.94120362931999"}}, "geometry": {"type": "Point", "coordinates": [-136.837117677238, -70.13270298403826]}}, {"type": "Feature", "properties": {"norad_id": 32241, "name": "FENGYUN 1C DEB", "group": "fengyun-1c-debris", "lat": -57.81603143152939, "lon": -176.23063746051648, "alt_km": 705.203667404212, "timestamp": "2025-12-14T22:38:41.043922+00:00", "meta": {"OBJECT_NAME": "FENGYUN 1C DEB", "OBJECT_ID": "1999-025CWP", "EPOCH": "2025-12-12T20:47:10.610592", "MEAN_MOTION": 14.28745094, "ECCENTRICITY": 0.01463636, "INCLINATION": 99.0782, "RA_OF_ASC_NODE": 16.3251, "ARG_OF_PERICENTER": 223.1188, "MEAN_ANOMALY": 135.8454, "EPHEMERIS_TYPE": 0, "CLASSIFICATION_TYPE": "U", "NORAD_CAT_ID": 32241, "ELEMENT_SET_NO": 999, "REV_AT_EPOCH": 93825, "BSTAR": 0.0022024177, "MEAN_MOTION_DOT": 6.175e-05, "MEAN_MOTION_DDOT": 0}, "tle": {"line1": "1 32241U 99025CWP 25346.86609503  .00006175  00000+0  22024-2 0  9994", "line2": "2 32241  99.0782  16.3251 0146363 223.1188 135.8454 14.28745094938256"}}, "geometry": {"type": "Point", "coordinates": [-176.23063746051648, -57.81603143152939]}}, {"type": "Feature", "properties": {"norad_id": 32243, "name": "FENGYUN 1C DEB", "group": "fengyun-1c-debris", "lat": -10.396333295771877, "lon": 14.903640957194467, "alt_km": 998.1592366499872, "timestamp": "2025-12-14T22:38:41.043932+00:00", "meta": {"OBJECT_NAME": "FENGYUN 1C DEB", "OBJECT_ID": "1999-025CWR", "EPOCH": "2025-12-14T00:28:14.814624", "MEAN_MOTION": 14.04614086, "ECCENTRICITY": 0.0269468, "INCLINATION": 98.2684, "RA_OF_ASC_NODE": 12.5319, "ARG_OF_PERICENTER": 119.9156, "MEAN_ANOMALY": 242.907, "EPHEMERIS_TYPE": 0, "CLASSIFICATION_TYPE": "U", "NORAD_CAT_ID": 32243, "ELEMENT_SET_NO": 999, "REV_AT_EPOCH": 93606, "BSTAR": 0.0022118855, "MEAN_MOTION_DOT": 4.858e-05, "MEAN_MOTION_DDOT": 0}, "tle": {"line1": "1 32243U 99025CWR 25348.01961591  .00004858  00000+0  22119-2 0  9994", "line2": "2 32243  98.2684  12.5319 0269468 119.9156 242.9070 14.04614086936063"}}, "geometry": {"type": "Point", "coordinates": [14.903640957194467, -10.396333295771877]}}, {"type": "Feature", "properties": {"norad_id": 32245, "name": "FENGYUN 1C DEB", "group": "fengyun-1c-debris", "lat": 63.591855400898886, "lon": 23.01242272693324, "alt_km": 684.9376382169257, "timestamp": "2025-12-14T22:38:41.043942+00:00", "meta": {"OBJECT_NAME": "FENGYUN 1C DEB", "OBJECT_ID": "1999-025CWT", "EPOCH": "2025-12-08T06:47:00.083040", "MEAN_MOTION": 14.76843452, "ECCENTRICITY": 0.00978135, "INCLINATION": 98.6545, "RA_OF_ASC_NODE": 178.0112, "ARG_OF_PERICENTER": 355.9473, "MEAN_ANOMALY": 4.0932, "EPHEMERIS_TYPE": 0, "CLASSIFICATION_TYPE": "U", "NORAD_CAT_ID": 32245, "ELEMENT_SET_NO": 999, "REV_AT_EPOCH": 66040, "BSTAR": 0.0014541087, "MEAN_MOTION_DOT": 0.00011, "MEAN_MOTION_DDOT": 0}, "tle": {"line1": "1 32245U 99025CWT 25342.28263985  .00011000  00000+0  14541-2 0  9998", "line2": "2 32245  98.6545 178.0112 0097813 355.9473   4.0932 14.76843452660407"}}, "geometry": {"type": "Point", "coordinates": [23.01242272693324, 63.591855400898886]}}, {"type": "Feature", "properties": {"norad_id": 32304, "name": "FENGYUN 1C DEB", "group": "fengyun-1c-debris", "lat": -79.66599653505645, "lon": 58.53091242438476, "alt_km": 706.1120517018335, "timestamp": "2025-12-14T22:38:41.043953+00:00", "meta": {"OBJECT_NAME": "FENGYUN 1C DEB", "OBJECT_ID": "1999-025CWV", "EPOCH": "2025-12-03T02:19:20.087328", "MEAN_MOTION": 14.50391603, "ECCENTRICITY": 0.00495576, "INCLINATION": 99.3949, "RA_OF_ASC_NODE": 290.5539, "ARG_OF_PERICENTER": 255.7789, "MEAN_ANOMALY": 103.7894, "EPHEMERIS_TYPE": 0, "CLASSIFICATION_TYPE": "U", "NORAD_CAT_ID": 32304, "ELEMENT_SET_NO": 999, "REV_AT_EPOCH": 56133, "BSTAR": 0.0019806873, "MEAN_MOTION_DOT": 7.809e-05, "MEAN_MOTION_DDOT": 0}, "tle": {"line1": "1 32304U 99025CWV 25337.09676027  .00007809  00000+0  19807-2 0  9994", "line2": "2 32304  99.3949 290.5539 0049557 255.7789 103.7894 14.50391603561335"}}, "geometry": {"type": "Point", "coordinates": [58.53091242438476, -79.66599653505645]}}, {"type": "Feature", "properties": {"norad_id": 32308, "name": "FENGYUN 1C DEB", "group": "fengyun-1c-debris", "lat": 8.036649641512085, "lon": -137.35902595363913, "alt_km": 912.7184219590717, "timestamp": "2025-12-14T22:38:41.043964+00:00", "meta": {"OBJECT_NAME": "FENGYUN 1C DEB", "OBJECT_ID": "1999-025CWZ", "EPOCH": "2025-12-14T03:02:46.306176", "MEAN_MOTION": 14.05508411, "ECCENTRICITY": 0.01080711, "INCLINATION": 97.777, "RA_OF_ASC_NODE": 40.8341, "ARG_OF_PERICENTER": 56.1356, "MEAN_ANOMALY": 305.0043, "EPHEMERIS_TYPE": 0, "CLASSIFICATION_TYPE": "U", "NORAD_CAT_ID": 32308, "ELEMENT_SET_NO": 999, "REV_AT_EPOCH": 65431, "BSTAR": 0.001695938, "MEAN_MOTION_DOT": 2.87e-05, "MEAN_MOTION_DDOT": 0}, "tle": {"line1": "1 32308U 99025CWZ 25348.12692484  .00002870  00000+0  16959-2 0  9997", "line2": "2 32308  97.7770  40.8341 0108071  56.1356 305.0043 14.05508411654311"}}, "geometry": {"type": "Point", "coordinates": [-137.35902595363913, 8.036649641512085]}}, {"type": "Feature", "properties": {"norad_id": 32314, "name": "FENGYUN 1C DEB", "group": "fengyun-1c-debris", "lat": -73.95012973891286, "lon": -118.63345266642906, "alt_km": 664.8199475564343, "timestamp": "2025-12-14T22:38:41.043974+00:00", "meta": {"OBJECT_NAME": "FENGYUN 1C DEB", "OBJECT_ID": "1999-025CXF", "EPOCH": "2025-12-09T13:16:04.145664", "MEAN_MOTION": 14.79358552, "ECCENTRICITY": 0.0149391, "INCLINATION": 98.8627, "RA_OF_ASC_NODE": 88.2704, "ARG_OF_PERICENTER": 167.7932, "MEAN_ANOMALY": 192.6962, "EPHEMERIS_TYPE": 0, "CLASSIFICATION_TYPE": "U", "NORAD_CAT_ID": 32314, "ELEMENT_SET_NO": 999, "REV_AT_EPOCH": 97383, "BSTAR": 0.0023179, "MEAN_MOTION_DOT": 0.00020854, "MEAN_MOTION_DDOT": 0}, "tle": {"line1": "1 32314U 99025CXF 25343.55282576  .00020854  00000+0  23179-2 0  9997", "line2": "2 32314  98.8627  88.2704 0149391 167.7932 192.6962 14.79358552973830"}}, "geometry": {"type": "Point", "coordinates": [-118.63345266642906, -73.95012973891286]}}, {"type": "Feature", "properties": {"norad_id": 32315, "name": "FENGYUN 1C DEB", "group": "fengyun-1c-debris", "lat": 13.60858471794358, "lon": -45.006643702221915, "alt_km": 919.2484322247892, "timestamp": "2025-12-14T22:38:41.043984+00:00", "meta": {"OBJECT_NAME": "FENGYUN 1C DEB", "OBJECT_ID": "1999-025CXG", "EPOCH": "2025-11-20T16:04:27.676128", "MEAN_MOTION": 13.66155502, "ECCENTRICITY": 0.02289149, "INCLINATION": 100.8052, "RA_OF_ASC_NODE": 105.2905, "ARG_OF_PERICENTER": 168.6, "MEAN_ANOMALY": 192.0449, "EPHEMERIS_TYPE": 0, "CLASSIFICATION_TYPE": "U", "NORAD_CAT_ID": 32315, "ELEMENT_SET_NO": 999, "REV_AT_EPOCH": 60787, "BSTAR": 0.00024184327, "MEAN_MOTION_DOT": 1.85e-06, "MEAN_MOTION_DDOT": 0}, "tle": {"line1": "1 32315U 99025CXG 25324.66976477  .00000185  00000+0  24184-3 0  9992", "line2": "2 32315 100.8052 105.2905 0228914 168.6000 192.0449 13.66155502607872"}}, "geometry": {"type": "Point", "coordinates": [-45.006643702221915, 13.60858471794358]}}]}